<?xml version="1.0" encoding="UTF-8"?>
<kml xmlns="http://www.opengis.net/kml/2.2">
  <Document>
    <Placemark>
      <name>Circuito</name>
      <LineString>
        <extrude>1</extrude>
        <tessellate>1</tessellate>
        <coordinates>
          103.0842,14.9586,180.53
          103.0822,14.9594,179.24
          103.0833,14.9647,173
          103.0839,14.9683,168.93
          103.0842,14.9686,165.84
          103.0847,14.9681,165.4
          103.0836,14.9611,177.91
          103.0836,14.9606,179
          103.0853,14.9589,176.8
          103.0856,14.9589,177.73
          103.0858,14.9589,178
          103.0861,14.9594,180.54
          103.0861,14.9600,180.69
          103.0856,14.9603,178.28
          103.0847,14.9608,180.13
          103.0844,14.9614,178.79
          103.0844,14.9617,177.62
          103.0847,14.9639,175.36
          103.0850,14.9642,174.79
          103.0853,14.9644,174.47
          103.0864,14.9644,175.05
          103.0870,14.9642,174.87
          103.0870,14.9636,173.49
          103.0867,14.9633,174.5
          103.0861,14.9631,178.28
          103.0864,14.9622,177.34
          103.0867,14.9617,176.27
          103.0867,14.9614,177.69
          103.0867,14.9603,179.42
          103.0870,14.9575,177.27
          103.0867,14.9575,178.25
          103.0842,14.9586,180.53
        </coordinates>
        <altitudeMode>relativeToGround</altitudeMode>
      </LineString>
      <Style id='lineaRoja'>
        <LineStyle>
          <color>#ff0000ff</color>
          <width>5</width>
        </LineStyle>
      </Style>
    </Placemark>
  </Document>
</kml>
